MALLIGYONG-1            
1 58400U 23179A   24084.96495098  .00025802  00000+0  11425-2 0  9998
2 58400  97.4159 333.0732 0009253 186.9600 173.1509 15.21590105 18918
